$$SOE
2459580.500000000, A.D. 2022-Jan-01 00:00:00.0000, 2.240678044292238E+08, -1.896364628331562E+08, 9.399200760577615E+07,
2459587.500000000, A.D. 2022-Jan-08 00:00:00.0000, 2.342010722265660E+08, -1.814075329840820E+08, 9.136980022888923E+07,
2459594.500000000, A.D. 2022-Jan-15 00:00:00.0000, 2.439529748985482E+08, -1.728830613704333E+08, 8.859868965628521E+07,
2459601.500000000, A.D. 2022-Jan-22 00:00:00.0000, 2.533146232727960E+08, -1.640818899549970E+08, 8.568572660121667E+07,
2459608.500000000, A.D. 2022-Jan-29 00:00:00.0000, 2.622783200093097E+08, -1.550228175388406E+08, 8.263803278750020E+07,
2459615.500000000, A.D. 2022-Feb-05 00:00:00.0000, 2.708375142183222E+08, -1.457245316452457E+08, 7.946276981754240E+07,
2459622.500000000, A.D. 2022-Feb-12 00:00:00.0000, 2.789867543206616E+08, -1.362055480730709E+08, 7.616711016497429E+07,
2459629.500000000, A.D. 2022-Feb-19 00:00:00.0000, 2.867216387208414E+08, -1.264841556941333E+08, 7.275821065037273E+07,
2459636.500000000, A.D. 2022-Feb-26 00:00:00.0000, 2.940387638103254E+08, -1.165783670763935E+08, 6.924318846467210E+07,
2459643.500000000, A.D. 2022-Mar-05 00:00:00.0000, 3.009356702152941E+08, -1.065058753363793E+08, 6.562909964289607E+07,
2459650.500000000, A.D. 2022-Mar-12 00:00:00.0000, 3.074107881892696E+08, -9.628401701485281E+07, 6.192291990053369E+07,
2459657.500000000, A.D. 2022-Mar-19 00:00:00.0000, 3.134633828230489E+08, -8.592974063152519E+07, 5.813152774262379E+07,
2459664.500000000, A.D. 2022-Mar-26 00:00:00.0000, 3.190934996195915E+08, -7.545958057694201E+07, 5.426168973876348E+07,
2459671.500000000, A.D. 2022-Apr-02 00:00:00.0000, 3.243019109524139E+08, -6.488963602953978E+07, 5.032004783472577E+07,
2459678.500000000, A.D. 2022-Apr-09 00:00:00.0000, 3.290900640568923E+08, -5.423555451374598E+07, 4.631310854645988E+07,
2459685.500000000, A.D. 2022-Apr-16 00:00:00.0000, 3.334600312209589E+08, -4.351251905819945E+07, 4.224723392107606E+07,
2459692.500000000, A.D. 2022-Apr-23 00:00:00.0000, 3.374144611622272E+08, -3.273523748455592E+07, 3.812863433433232E+07,
2459699.500000000, A.D. 2022-Apr-30 00:00:00.0000, 3.409565299269117E+08, -2.191793570350082E+07, 3.396336297778486E+07,
2459706.500000000, A.D. 2022-May-07 00:00:00.0000, 3.440898945199128E+08, -1.107435663744853E+07, 2.975731145630370E+07,
2459713.500000000, A.D. 2022-May-14 00:00:00.0000, 3.468186507550592E+08, -2.177613880770486E+05, 2.551620648317571E+07,
2459720.500000000, A.D. 2022-May-21 00:00:00.0000, 3.491472933608328E+08, 1.063906843526230E+07, 2.124560779455663E+07,
2459727.500000000, A.D. 2022-May-28 00:00:00.0000, 3.510806778980055E+08, 2.148382657021616E+07, 1.695090712857150E+07,
2459734.500000000, A.D. 2022-Jun-04 00:00:00.0000, 3.526239847728863E+08, 3.230467610645072E+07, 1.263732810404688E+07,
2459741.500000000, A.D. 2022-Jun-11 00:00:00.0000, 3.537826854726185E+08, 4.309024190014739E+07, 8.309926878395986E+06,
2459748.500000000, A.D. 2022-Jun-18 00:00:00.0000, 3.545625110207495E+08, 5.382960164504880E+07, 3.973593481730025E+06,
2459755.500000000, A.D. 2022-Jun-25 00:00:00.0000, 3.549694226221777E+08, 6.451227577953500E+07, -3.669462712173648E+05,
2459762.500000000, A.D. 2022-Jul-02 00:00:00.0000, 3.550095845560673E+08, 7.512821635884756E+07, -4.707128393728185E+06,
2459769.500000000, A.D. 2022-Jul-09 00:00:00.0000, 3.546893396225858E+08, 8.566779524794632E+07, -9.042547961746056E+06,
2459776.500000000, A.D. 2022-Jul-16 00:00:00.0000, 3.540151869990441E+08, 9.612179288089044E+07, -1.336895594481623E+07,
2459783.500000000, A.D. 2022-Jul-23 00:00:00.0000, 3.529937602225002E+08, 1.064813878130526E+08, -1.768225548586148E+07,
2459790.500000000, A.D. 2022-Jul-30 00:00:00.0000, 3.516318053049812E+08, 1.167381438369031E+08, -2.197849796798173E+07,
2459797.500000000, A.D. 2022-Aug-06 00:00:00.0000, 3.499361624901270E+08, 1.268839954104459E+08, -2.625387919792449E+07,
2459804.500000000, A.D. 2022-Aug-13 00:00:00.0000, 3.479137507286362E+08, 1.369112342432158E+08, -3.050473545183549E+07,
2459811.500000000, A.D. 2022-Aug-20 00:00:00.0000, 3.455715532061161E+08, 1.468124966177472E+08, -3.472753932080624E+07,
2459818.500000000, A.D. 2022-Aug-27 00:00:00.0000, 3.429166038975672E+08, 1.565807507903440E+08, -3.891889545723584E+07,
2459825.500000000, A.D. 2022-Sep-03 00:00:00.0000, 3.399559753052344E+08, 1.662092844208412E+08, -4.307553628471245E+07,
2459832.500000000, A.D. 2022-Sep-10 00:00:00.0000, 3.366967673820479E+08, 1.756916921064046E+08, -4.719431770464388E+07,
2459839.500000000, A.D. 2022-Sep-17 00:00:00.0000, 3.331460975860288E+08, 1.850218630606223E+08, -5.127221482587785E+07,
2459846.500000000, A.D. 2022-Sep-24 00:00:00.0000, 3.293110920464025E+08, 1.941939689227735E+08, -5.530631774737756E+07,
2459853.500000000, A.D. 2022-Oct-01 00:00:00.0000, 3.251988780066469E+08, 2.032024517039519E+08, -5.929382743565898E+07,
2459860.500000000, A.D. 2022-Oct-08 00:00:00.0000, 3.208165778810996E+08, 2.120420124130964E+08, -6.323205170710222E+07,
2459867.500000000, A.D. 2022-Oct-15 00:00:00.0000, 3.161713039224895E+08, 2.207076015759192E+08, -6.711840114340416E+07,
2459874.500000000, A.D. 2022-Oct-22 00:00:00.0000, 3.112701512515464E+08, 2.291944099772729E+08, -7.095038488681598E+07,
2459881.500000000, A.D. 2022-Oct-29 00:00:00.0000, 3.061201916904896E+08, 2.374978570449879E+08, -7.472560676562762E+07,
2459888.500000000, A.D. 2022-Nov-05 00:00:00.0000, 3.007284704440105E+08, 2.456135796184601E+08, -7.844176172505595E+07,
2459895.500000000, A.D. 2022-Nov-12 00:00:00.0000, 2.951020036062185E+08, 2.535374223704170E+08, -8.209663228333953E+07,
2459902.500000000, A.D. 2022-Nov-19 00:00:00.0000, 2.892477757230885E+08, 2.612654289299555E+08, -8.568808502817836E+07,
2459909.500000000, A.D. 2022-Nov-26 00:00:00.0000, 2.831727376270651E+08, 2.687938333103538E+08, -8.921406721312223E+07,
2459916.500000000, A.D. 2022-Dec-03 00:00:00.0000, 2.768838046685901E+08, 2.761190516288433E+08, -9.267260347281902E+07,
2459923.500000000, A.D. 2022-Dec-10 00:00:00.0000, 2.703878553523628E+08, 2.832376741335301E+08, -9.606179266189416E+07,
2459930.500000000, A.D. 2022-Dec-17 00:00:00.0000, 2.636917303681833E+08, 2.901464575070472E+08, -9.937980482303905E+07,
2459937.500000000, A.D. 2022-Dec-24 00:00:00.0000, 2.568022320933319E+08, 2.968423173744396E+08, -1.026248783001492E+08,
2459944.500000000, A.D. 2022-Dec-31 00:00:00.0000, 2.497261248943625E+08, 3.033223211155159E+08, -1.057953170204838E+08,
2459951.500000000, A.D. 2023-Jan-07 00:00:00.0000, 2.424701363239865E+08, 3.095836819349411E+08, -1.088894878777789E+08,
2459958.500000000, A.D. 2023-Jan-14 00:00:00.0000, 2.350409572184109E+08, 3.156237546751550E+08, -1.119058179922448E+08,
2459965.500000000, A.D. 2023-Jan-21 00:00:00.0000, 2.274452400229480E+08, 3.214400301922278E+08, -1.148427920445568E+08,
2459972.500000000, A.D. 2023-Jan-28 00:00:00.0000, 2.196895989940316E+08, 3.270301280946392E+08, -1.176989500365374E+08,
2459979.500000000, A.D. 2023-Feb-04 00:00:00.0000, 2.117806120510218E+08, 3.323917908630074E+08, -1.204728852106834E+08,
2459986.500000000, A.D. 2023-Feb-11 00:00:00.0000, 2.037248224633552E+08, 3.375228791473815E+08, -1.231632419769108E+08,
2459993.500000000, A.D. 2023-Feb-18 00:00:00.0000, 1.955287402929517E+08, 3.424213674107861E+08, -1.257687139058605E+08,
2460000.500000000, A.D. 2023-Feb-25 00:00:00.0000, 1.871988438402970E+08, 3.470853397488230E+08, -1.282880418240040E+08,
2460007.500000000, A.D. 2023-Mar-04 00:00:00.0000, 1.787415811833256E+08, 3.515129858948749E+08, -1.307200120155234E+08,
2460014.500000000, A.D. 2023-Mar-11 00:00:00.0000, 1.701633718249130E+08, 3.557025974018013E+08, -1.330634545296234E+08,
2460021.500000000, A.D. 2023-Mar-18 00:00:00.0000, 1.614706084829136E+08, 3.596525639420451E+08, -1.353172415972127E+08,
2460028.500000000, A.D. 2023-Mar-25 00:00:00.0000, 1.526696592131158E+08, 3.633613696728112E+08, -1.374802861759037E+08,
2460035.500000000, A.D. 2023-Apr-01 00:00:00.0000, 1.437668702786835E+08, 3.668275900563260E+08, -1.395515406287782E+08,
2460042.500000000, A.D. 2023-Apr-08 00:00:00.0000, 1.347685691433849E+08, 3.700498903567759E+08, -1.415299953805468E+08,
2460049.500000000, A.D. 2023-Apr-15 00:00:00.0000, 1.256810652450416E+08, 3.730270247011464E+08, -1.434146774253681E+08,
2460056.500000000, A.D. 2023-Apr-22 00:00:00.0000, 1.165106503499067E+08, 3.757578326476183E+08, -1.452046490999740E+08,
2460063.500000000, A.D. 2023-Apr-29 00:00:00.0000, 1.072636012183195E+08, 3.782412355125318E+08, -1.468990071900288E+08,
2460070.500000000, A.D. 2023-May-06 00:00:00.0000, 9.794618281791589E+07, 3.804762342315108E+08, -1.484968820616558E+08,
2460077.500000000, A.D. 2023-May-13 00:00:00.0000, 8.856465110196911E+07, 3.824619078555277E+08, -1.499974367991354E+08,
2460084.500000000, A.D. 2023-May-20 00:00:00.0000, 7.912525558130592E+07, 3.841974121869950E+08, -1.513998664088392E+08,
2460091.500000000, A.D. 2023-May-27 00:00:00.0000, 6.963424187827802E+07, 3.856819785236064E+08, -1.527033971086808E+08,
2460098.500000000, A.D. 2023-Jun-03 00:00:00.0000, 6.009785431587563E+07, 3.869149125336300E+08, -1.539072857057162E+08,
2460105.500000000, A.D. 2023-Jun-10 00:00:00.0000, 5.052233856160586E+07, 3.878955932471071E+08, -1.550108190648935E+08,
2460112.500000000, A.D. 2023-Jun-17 00:00:00.0000, 4.091394441120758E+07, 3.886234721015818E+08, -1.560133136819179E+08,
2460119.500000000, A.D. 2023-Jun-24 00:00:00.0000, 3.127892902825245E+07, 3.890980720974503E+08, -1.569141153852590E+08,
2460126.500000000, A.D. 2023-Jul-01 00:00:00.0000, 2.162356088914065E+07, 3.893189878916699E+08, -1.577125991238824E+08,
2460133.500000000, A.D. 2023-Jul-08 00:00:00.0000, 1.195412275750363E+07, 3.892858876526271E+08, -1.584081686212619E+08,
2460140.500000000, A.D. 2023-Jul-15 00:00:00.0000, 2.276912408904175E+06, 3.889985138448206E+08, -1.590002560085524E+08,
2460147.500000000, A.D. 2023-Jul-22 00:00:00.0000, -7.401755378832551E+06, 3.884566819097238E+08, -1.594883218441219E+08,
$$EOE